[{"OBJECT_NAME":"LILIUM-1","OBJECT_ID":"2023-185F","EPOCH":"2026-03-09T22:28:56.680896","MEAN_MOTION":15.66968582,"ECCENTRICITY":0.00057383,"INCLINATION":97.3316,"RA_OF_ASC_NODE":147.7332,"ARG_OF_PERICENTER":186.5847,"MEAN_ANOMALY":173.5339,"EPHEMERIS_TYPE":0,"CLASSIFICATION_TYPE":"U","NORAD_CAT_ID":58467,"ELEMENT_SET_NO":999,"REV_AT_EPOCH":12691,"BSTAR":0.0013028575,"MEAN_MOTION_DOT":0.00140249,"MEAN_MOTION_DDOT":0},{"OBJECT_NAME":"STARLINK-11108 [DTC]","OBJECT_ID":"2024-088E","EPOCH":"2026-03-09T23:09:49.239072","MEAN_MOTION":15.69698406,"ECCENTRICITY":3.497e-5,"INCLINATION":53.1577,"RA_OF_ASC_NODE":325.0504,"ARG_OF_PERICENTER":141.4046,"MEAN_ANOMALY":218.6997,"EPHEMERIS_TYPE":0,"CLASSIFICATION_TYPE":"U","NORAD_CAT_ID":59712,"ELEMENT_SET_NO":999,"REV_AT_EPOCH":10631,"BSTAR":8.2489865e-5,"MEAN_MOTION_DOT":9.412e-5,"MEAN_MOTION_DDOT":0}]
